IRIDIUM 149             
1 43250U 18030B   24140.36474387  .00000553  00000+0  19038-3 0  9995
2 43250  86.3978 247.4755 0002303  99.6003 260.5453 14.34213558321395
IRIDIUM 157             
1 43251U 18030C   24140.38378154  .00000758  00000+0  26353-3 0  9998
2 43251  86.3978 247.5038 0002538  93.7037 266.4449 14.34221220321376
IRIDIUM 145             
1 43253U 18030E   24140.39012511  .00000594  00000+0  20506-3 0  9995
2 43253  86.3982 247.4896 0002088 106.9767 253.1657 14.34220696321360
IRIDIUM 146             
1 43254U 18030F   24140.37108127  .00000862  00000+0  30086-3 0  9995
2 43254  86.3978 247.5122 0002091 100.9019 259.2412 14.34218487321379
IRIDIUM 142             
1 43256U 18030H   24140.37743361  .00000741  00000+0  25758-3 0  9998
2 43256  86.3963 247.4563 0002257 105.2014 254.9431 14.34216727321378
